[{"OBJECT_NAME":"STARLINK-5350","OBJECT_ID":"2023-061AX","EPOCH":"2025-11-10T17:33:51.953184","MEAN_MOTION":15.02536768,"ECCENTRICITY":0.00012535,"INCLINATION":43.0024,"RA_OF_ASC_NODE":110.5615,"ARG_OF_PERICENTER":265.8803,"MEAN_ANOMALY":94.1896,"EPHEMERIS_TYPE":0,"CLASSIFICATION_TYPE":"U","NORAD_CAT_ID":56419,"ELEMENT_SET_NO":999,"REV_AT_EPOCH":13901,"BSTAR":-1.319204e-6,"MEAN_MOTION_DOT":-2.21e-6,"MEAN_MOTION_DDOT":0},{"OBJECT_NAME":"STARLINK-6272","OBJECT_ID":"2023-061AY","EPOCH":"2025-11-11T02:24:00.939168","MEAN_MOTION":15.02538592,"ECCENTRICITY":0.00013325,"INCLINATION":43.0029,"RA_OF_ASC_NODE":96.0143,"ARG_OF_PERICENTER":266.5824,"MEAN_ANOMALY":93.4866,"EPHEMERIS_TYPE":0,"CLASSIFICATION_TYPE":"U","NORAD_CAT_ID":56420,"ELEMENT_SET_NO":999,"REV_AT_EPOCH":13921,"BSTAR":0.00010539414,"MEAN_MOTION_DOT":1.22e-5,"MEAN_MOTION_DDOT":0},{"OBJECT_NAME":"STARLINK-6270","OBJECT_ID":"2023-061AZ","EPOCH":"2025-11-11T02:52:47.278560","MEAN_MOTION":15.025383,"ECCENTRICITY":0.0001268,"INCLINATION":43.0027,"RA_OF_ASC_NODE":96.162,"ARG_OF_PERICENTER":271.662,"MEAN_ANOMALY":88.4077,"EPHEMERIS_TYPE":0,"CLASSIFICATION_TYPE":"U","NORAD_CAT_ID":56421,"ELEMENT_SET_NO":999,"REV_AT_EPOCH":13921,"BSTAR":6.3001835e-5,"MEAN_MOTION_DOT":6.48e-6,"MEAN_MOTION_DDOT":0},{"OBJECT_NAME":"STARLINK-6236","OBJECT_ID":"2023-061BA","EPOCH":"2025-11-11T02:14:25.452096","MEAN_MOTION":15.0253956,"ECCENTRICITY":0.0001328,"INCLINATION":43.0034,"RA_OF_ASC_NODE":95.966,"ARG_OF_PERICENTER":267.6633,"MEAN_ANOMALY":92.4058,"EPHEMERIS_TYPE":0,"CLASSIFICATION_TYPE":"U","NORAD_CAT_ID":56422,"ELEMENT_SET_NO":999,"REV_AT_EPOCH":13921,"BSTAR":0.00011832981,"MEAN_MOTION_DOT":1.395e-5,"MEAN_MOTION_DDOT":0},{"OBJECT_NAME":"STARLINK-6239","OBJECT_ID":"2023-061BB","EPOCH":"2025-11-11T02:19:14.678688","MEAN_MOTION":15.02530057,"ECCENTRICITY":0.00011219,"INCLINATION":43.0039,"RA_OF_ASC_NODE":95.9893,"ARG_OF_PERICENTER":272.2725,"MEAN_ANOMALY":87.7989,"EPHEMERIS_TYPE":0,"CLASSIFICATION_TYPE":"U","NORAD_CAT_ID":56423,"ELEMENT_SET_NO":999,"REV_AT_EPOCH":13921,"BSTAR":0.00022101834,"MEAN_MOTION_DOT":2.783e-5,"MEAN_MOTION_DDOT":0},{"OBJECT_NAME":"STARLINK-6242","OBJECT_ID":"2023-061BC","EPOCH":"2025-11-11T02:04:51.587616","MEAN_MOTION":15.02529954,"ECCENTRICITY":0.00012857,"INCLINATION":43.0035,"RA_OF_ASC_NODE":95.913,"ARG_OF_PERICENTER":271.1513,"MEAN_ANOMALY":88.9182,"EPHEMERIS_TYPE":0,"CLASSIFICATION_TYPE":"U","NORAD_CAT_ID":56424,"ELEMENT_SET_NO":999,"REV_AT_EPOCH":13921,"BSTAR":1.6086365e-5,"MEAN_MOTION_DOT":1.4e-7,"MEAN_MOTION_DDOT":0},{"OBJECT_NAME":"STARLINK-6224","OBJECT_ID":"2023-061BD","EPOCH":"2025-11-11T02:09:37.927584","MEAN_MOTION":15.02538622,"ECCENTRICITY":0.00013083,"INCLINATION":43.004,"RA_OF_ASC_NODE":95.9374,"ARG_OF_PERICENTER":273.6885,"MEAN_ANOMALY":86.3807,"EPHEMERIS_TYPE":0,"CLASSIFICATION_TYPE":"U","NORAD_CAT_ID":56425,"ELEMENT_SET_NO":999,"REV_AT_EPOCH":13921,"BSTAR":5.7954789e-5,"MEAN_MOTION_DOT":5.79e-6,"MEAN_MOTION_DDOT":0},{"OBJECT_NAME":"STARLINK-5352","OBJECT_ID":"2023-061BE","EPOCH":"2025-11-10T11:14:41.230464","MEAN_MOTION":15.02533874,"ECCENTRICITY":0.00012907,"INCLINATION":43.0045,"RA_OF_ASC_NODE":99.8574,"ARG_OF_PERICENTER":268.1547,"MEAN_ANOMALY":91.9148,"EPHEMERIS_TYPE":0,"CLASSIFICATION_TYPE":"U","NORAD_CAT_ID":56426,"ELEMENT_SET_NO":999,"REV_AT_EPOCH":13911,"BSTAR":4.8487464e-5,"MEAN_MOTION_DOT":4.51e-6,"MEAN_MOTION_DDOT":0},{"OBJECT_NAME":"STARLINK-5724","OBJECT_ID":"2023-061BF","EPOCH":"2025-11-11T02:57:34.987968","MEAN_MOTION":15.02549491,"ECCENTRICITY":0.00013147,"INCLINATION":43.0045,"RA_OF_ASC_NODE":96.1754,"ARG_OF_PERICENTER":287.98,"MEAN_ANOMALY":72.0899,"EPHEMERIS_TYPE":0,"CLASSIFICATION_TYPE":"U","NORAD_CAT_ID":56427,"ELEMENT_SET_NO":999,"REV_AT_EPOCH":13921,"BSTAR":4.7837499e-5,"MEAN_MOTION_DOT":4.43e-6,"MEAN_MOTION_DDOT":0},{"OBJECT_NAME":"STARLINK-6238","OBJECT_ID":"2023-061BG","EPOCH":"2025-11-11T01:55:14.776896","MEAN_MOTION":15.02542002,"ECCENTRICITY":0.00012174,"INCLINATION":43.0037,"RA_OF_ASC_NODE":95.8614,"ARG_OF_PERICENTER":272.4332,"MEAN_ANOMALY":87.6371,"EPHEMERIS_TYPE":0,"CLASSIFICATION_TYPE":"U","NORAD_CAT_ID":56428,"ELEMENT_SET_NO":999,"REV_AT_EPOCH":13921,"BSTAR":0.00010657075,"MEAN_MOTION_DOT":1.236e-5,"MEAN_MOTION_DDOT":0},{"OBJECT_NAME":"STARLINK-6264","OBJECT_ID":"2023-061BH","EPOCH":"2025-11-11T01:50:27.311136","MEAN_MOTION":15.02536912,"ECCENTRICITY":0.00013089,"INCLINATION":43.0051,"RA_OF_ASC_NODE":95.8338,"ARG_OF_PERICENTER":266.1955,"MEAN_ANOMALY":93.8738,"EPHEMERIS_TYPE":0,"CLASSIFICATION_TYPE":"U","NORAD_CAT_ID":56429,"ELEMENT_SET_NO":999,"REV_AT_EPOCH":13921,"BSTAR":5.711262e-5,"MEAN_MOTION_DOT":5.68e-6,"MEAN_MOTION_DDOT":0},{"OBJECT_NAME":"STARLINK-5990","OBJECT_ID":"2023-064A","EPOCH":"2025-11-11T07:40:34.115520","MEAN_MOTION":14.98332519,"ECCENTRICITY":0.00027972,"INCLINATION":70.0001,"RA_OF_ASC_NODE":82.982,"ARG_OF_PERICENTER":277.6573,"MEAN_ANOMALY":82.4268,"EPHEMERIS_TYPE":0,"CLASSIFICATION_TYPE":"U","NORAD_CAT_ID":56448,"ELEMENT_SET_NO":999,"REV_AT_EPOCH":13751,"BSTAR":4.228262e-5,"MEAN_MOTION_DOT":4.12e-6,"MEAN_MOTION_DDOT":0},{"OBJECT_NAME":"STARLINK-5993","OBJECT_ID":"2023-064B","EPOCH":"2025-11-11T01:45:50.986656","MEAN_MOTION":14.9833328,"ECCENTRICITY":0.00030093,"INCLINATION":69.9991,"RA_OF_ASC_NODE":83.7256,"ARG_OF_PERICENTER":270.926,"MEAN_ANOMALY":89.1554,"EPHEMERIS_TYPE":0,"CLASSIFICATION_TYPE":"U","NORAD_CAT_ID":56449,"ELEMENT_SET_NO":999,"REV_AT_EPOCH":13747,"BSTAR":2.9121617e-5,"MEAN_MOTION_DOT":2.55e-6,"MEAN_MOTION_DDOT":0},{"OBJECT_NAME":"STARLINK-5970","OBJECT_ID":"2023-064C","EPOCH":"2025-11-11T07:34:34.789152","MEAN_MOTION":14.98336536,"ECCENTRICITY":0.00030087,"INCLINATION":69.9987,"RA_OF_ASC_NODE":82.9662,"ARG_OF_PERICENTER":268.6607,"MEAN_ANOMALY":91.4208,"EPHEMERIS_TYPE":0,"CLASSIFICATION_TYPE":"U","NORAD_CAT_ID":56450,"ELEMENT_SET_NO":999,"REV_AT_EPOCH":13751,"BSTAR":0.00017087863,"MEAN_MOTION_DOT":1.947e-5,"MEAN_MOTION_DDOT":0},{"OBJECT_NAME":"STARLINK-5985","OBJECT_ID":"2023-064D","EPOCH":"2025-11-10T11:14:37.886784","MEAN_MOTION":14.98334138,"ECCENTRICITY":0.00030325,"INCLINATION":69.9994,"RA_OF_ASC_NODE":85.2259,"ARG_OF_PERICENTER":270.2802,"MEAN_ANOMALY":89.8009,"EPHEMERIS_TYPE":0,"CLASSIFICATION_TYPE":"U","NORAD_CAT_ID":56451,"ELEMENT_SET_NO":999,"REV_AT_EPOCH":13738,"BSTAR":3.9788046e-5,"MEAN_MOTION_DOT":3.82e-6,"MEAN_MOTION_DDOT":0},{"OBJECT_NAME":"STARLINK-5986","OBJECT_ID":"2023-064E","EPOCH":"2025-11-11T01:33:50.055552","MEAN_MOTION":14.98346012,"ECCENTRICITY":0.00031672,"INCLINATION":69.9994,"RA_OF_ASC_NODE":83.6966,"ARG_OF_PERICENTER":271.118,"MEAN_ANOMALY":88.9617,"EPHEMERIS_TYPE":0,"CLASSIFICATION_TYPE":"U","NORAD_CAT_ID":56452,"ELEMENT_SET_NO":999,"REV_AT_EPOCH":13747,"BSTAR":0.00012181135,"MEAN_MOTION_DOT":1.361e-5,"MEAN_MOTION_DDOT":0},{"OBJECT_NAME":"STARLINK-5935","OBJECT_ID":"2023-064F","EPOCH":"2025-11-11T01:27:48.582144","MEAN_MOTION":14.98347298,"ECCENTRICITY":0.00032311,"INCLINATION":69.9995,"RA_OF_ASC_NODE":83.6825,"ARG_OF_PERICENTER":269.3302,"MEAN_ANOMALY":90.7487,"EPHEMERIS_TYPE":0,"CLASSIFICATION_TYPE":"U","NORAD_CAT_ID":56453,"ELEMENT_SET_NO":999,"REV_AT_EPOCH":13747,"BSTAR":-0.0003313686,"MEAN_MOTION_DOT":-4.046e-5,"MEAN_MOTION_DDOT":0},{"OBJECT_NAME":"STARLINK-5959","OBJECT_ID":"2023-064G","EPOCH":"2025-11-11T07:22:17.791104","MEAN_MOTION":14.98332114,"ECCENTRICITY":0.00031483,"INCLINATION":69.9996,"RA_OF_ASC_NODE":82.9367,"ARG_OF_PERICENTER":271.061,"MEAN_ANOMALY":89.0188,"EPHEMERIS_TYPE":0,"CLASSIFICATION_TYPE":"U","NORAD_CAT_ID":56454,"ELEMENT_SET_NO":999,"REV_AT_EPOCH":13751,"BSTAR":1.0316024e-5,"MEAN_MOTION_DOT":3.0e-7,"MEAN_MOTION_DDOT":0},{"OBJECT_NAME":"STARLINK-5987","OBJECT_ID":"2023-064H","EPOCH":"2025-11-11T07:16:17.212800","MEAN_MOTION":14.9833804,"ECCENTRICITY":0.00029823,"INCLINATION":69.9995,"RA_OF_ASC_NODE":82.9217,"ARG_OF_PERICENTER":272.2665,"MEAN_ANOMALY":87.8153,"EPHEMERIS_TYPE":0,"CLASSIFICATION_TYPE":"U","NORAD_CAT_ID":56455,"ELEMENT_SET_NO":999,"REV_AT_EPOCH":13751,"BSTAR":0.0001278735,"MEAN_MOTION_DOT":1.433e-5,"MEAN_MOTION_DDOT":0},{"OBJECT_NAME":"STARLINK-5995","OBJECT_ID":"2023-064J","EPOCH":"2025-11-11T07:34:19.176672","MEAN_MOTION":14.98335696,"ECCENTRICITY":0.00029619,"INCLINATION":69.9993,"RA_OF_ASC_NODE":82.9664,"ARG_OF_PERICENTER":266.5454,"MEAN_ANOMALY":93.5366,"EPHEMERIS_TYPE":0,"CLASSIFICATION_TYPE":"U","NORAD_CAT_ID":56456,"ELEMENT_SET_NO":999,"REV_AT_EPOCH":13751,"BSTAR":7.67396e-7,"MEAN_MOTION_DOT":-8.4e-7,"MEAN_MOTION_DDOT":0},{"OBJECT_NAME":"STARLINK-5994","OBJECT_ID":"2023-064K","EPOCH":"2025-11-11T07:28:18.795360","MEAN_MOTION":14.98326548,"ECCENTRICITY":0.00026324,"INCLINATION":70.0013,"RA_OF_ASC_NODE":82.951,"ARG_OF_PERICENTER":270.9734,"MEAN_ANOMALY":89.1123,"EPHEMERIS_TYPE":0,"CLASSIFICATION_TYPE":"U","NORAD_CAT_ID":56457,"ELEMENT_SET_NO":999,"REV_AT_EPOCH":13751,"BSTAR":-4.4342291e-5,"MEAN_MOTION_DOT":-6.22e-6,"MEAN_MOTION_DDOT":0},{"OBJECT_NAME":"STARLINK-6050","OBJECT_ID":"2023-064L","EPOCH":"2025-11-10T18:51:16.008480","MEAN_MOTION":14.98338073,"ECCENTRICITY":0.00030413,"INCLINATION":69.9996,"RA_OF_ASC_NODE":84.3261,"ARG_OF_PERICENTER":269.1981,"MEAN_ANOMALY":90.883,"EPHEMERIS_TYPE":0,"CLASSIFICATION_TYPE":"U","NORAD_CAT_ID":56458,"ELEMENT_SET_NO":999,"REV_AT_EPOCH":13743,"BSTAR":0.00021127011,"MEAN_MOTION_DOT":2.429e-5,"MEAN_MOTION_DDOT":0},{"OBJECT_NAME":"STARLINK-6048","OBJECT_ID":"2023-064M","EPOCH":"2025-11-11T02:04:04.960128","MEAN_MOTION":14.98330696,"ECCENTRICITY":0.00030532,"INCLINATION":69.9993,"RA_OF_ASC_NODE":83.3671,"ARG_OF_PERICENTER":269.8137,"MEAN_ANOMALY":90.2672,"EPHEMERIS_TYPE":0,"CLASSIFICATION_TYPE":"U","NORAD_CAT_ID":56459,"ELEMENT_SET_NO":999,"REV_AT_EPOCH":13747,"BSTAR":0.00019662534,"MEAN_MOTION_DOT":2.254e-5,"MEAN_MOTION_DDOT":0}]
